[{"OBJECT_NAME":"OBJECT A","OBJECT_ID":"2025-013A","EPOCH":"2026-03-09T23:29:31.895232","MEAN_MOTION":15.29260221,"ECCENTRICITY":0.0010321,"INCLINATION":97.6364,"RA_OF_ASC_NODE":244.5149,"ARG_OF_PERICENTER":282.3775,"MEAN_ANOMALY":77.6309,"EPHEMERIS_TYPE":0,"CLASSIFICATION_TYPE":"U","NORAD_CAT_ID":62729,"ELEMENT_SET_NO":999,"REV_AT_EPOCH":6276,"BSTAR":0.0013206527,"MEAN_MOTION_DOT":0.00037616,"MEAN_MOTION_DDOT":0},{"OBJECT_NAME":"STARLINK-35396","OBJECT_ID":"2025-221F","EPOCH":"2026-03-09T10:20:43.246176","MEAN_MOTION":15.30203428,"ECCENTRICITY":0.00012879,"INCLINATION":53.1592,"RA_OF_ASC_NODE":89.5566,"ARG_OF_PERICENTER":90.4869,"MEAN_ANOMALY":269.6279,"EPHEMERIS_TYPE":0,"CLASSIFICATION_TYPE":"U","NORAD_CAT_ID":65828,"ELEMENT_SET_NO":999,"REV_AT_EPOCH":2604,"BSTAR":0.0011167703,"MEAN_MOTION_DOT":0.00032866,"MEAN_MOTION_DDOT":0}]
